[{"OBJECT_NAME":"STARLINK-2251","OBJECT_ID":"2021-041AT","EPOCH":"2025-11-26T01:07:11.951040","MEAN_MOTION":15.06428715,"ECCENTRICITY":0.000172,"INCLINATION":53.054,"RA_OF_ASC_NODE":216.9739,"ARG_OF_PERICENTER":87.6077,"MEAN_ANOMALY":272.5109,"EPHEMERIS_TYPE":0,"CLASSIFICATION_TYPE":"U","NORAD_CAT_ID":48594,"ELEMENT_SET_NO":999,"REV_AT_EPOCH":24986,"BSTAR":0.00061346,"MEAN_MOTION_DOT":8.875e-5,"MEAN_MOTION_DDOT":0},{"OBJECT_NAME":"STARLINK-2252","OBJECT_ID":"2021-041AU","EPOCH":"2025-11-26T01:35:02.997024","MEAN_MOTION":15.06428978,"ECCENTRICITY":0.000161,"INCLINATION":53.0536,"RA_OF_ASC_NODE":246.8044,"ARG_OF_PERICENTER":82.5496,"MEAN_ANOMALY":277.5675,"EPHEMERIS_TYPE":0,"CLASSIFICATION_TYPE":"U","NORAD_CAT_ID":48595,"ELEMENT_SET_NO":999,"REV_AT_EPOCH":25071,"BSTAR":0.0007332,"MEAN_MOTION_DOT":0.00010665,"MEAN_MOTION_DDOT":0},{"OBJECT_NAME":"STARLINK-2253","OBJECT_ID":"2021-041AV","EPOCH":"2025-11-26T03:42:26.737632","MEAN_MOTION":15.06423414,"ECCENTRICITY":0.000181,"INCLINATION":53.0543,"RA_OF_ASC_NODE":246.4062,"ARG_OF_PERICENTER":99.3468,"MEAN_ANOMALY":260.7726,"EPHEMERIS_TYPE":0,"CLASSIFICATION_TYPE":"U","NORAD_CAT_ID":48596,"ELEMENT_SET_NO":999,"REV_AT_EPOCH":24991,"BSTAR":0.00080511,"MEAN_MOTION_DOT":0.00011738,"MEAN_MOTION_DDOT":0},{"OBJECT_NAME":"STARLINK-2255","OBJECT_ID":"2021-041AW","EPOCH":"2025-11-26T03:53:02.925024","MEAN_MOTION":15.06439919,"ECCENTRICITY":0.0001708,"INCLINATION":53.0534,"RA_OF_ASC_NODE":246.3743,"ARG_OF_PERICENTER":94.6151,"MEAN_ANOMALY":265.5033,"EPHEMERIS_TYPE":0,"CLASSIFICATION_TYPE":"U","NORAD_CAT_ID":48597,"ELEMENT_SET_NO":999,"REV_AT_EPOCH":25072,"BSTAR":0.0010721,"MEAN_MOTION_DOT":0.0001574,"MEAN_MOTION_DDOT":0},{"OBJECT_NAME":"STARLINK-2713","OBJECT_ID":"2021-041BB","EPOCH":"2025-11-26T02:12:53.756640","MEAN_MOTION":15.06375522,"ECCENTRICITY":0.0001374,"INCLINATION":53.0534,"RA_OF_ASC_NODE":221.685,"ARG_OF_PERICENTER":76.7015,"MEAN_ANOMALY":283.4127,"EPHEMERIS_TYPE":0,"CLASSIFICATION_TYPE":"U","NORAD_CAT_ID":48602,"ELEMENT_SET_NO":999,"REV_AT_EPOCH":25105,"BSTAR":-0.00060231,"MEAN_MOTION_DOT":-9.235e-5,"MEAN_MOTION_DDOT":0},{"OBJECT_NAME":"STARLINK-2714","OBJECT_ID":"2021-041BC","EPOCH":"2025-11-26T03:18:31.429728","MEAN_MOTION":15.06415775,"ECCENTRICITY":0.0001696,"INCLINATION":53.0533,"RA_OF_ASC_NODE":216.4794,"ARG_OF_PERICENTER":96.9126,"MEAN_ANOMALY":263.2056,"EPHEMERIS_TYPE":0,"CLASSIFICATION_TYPE":"U","NORAD_CAT_ID":48603,"ELEMENT_SET_NO":999,"REV_AT_EPOCH":25114,"BSTAR":0.0004855,"MEAN_MOTION_DOT":6.96e-5,"MEAN_MOTION_DDOT":0},{"OBJECT_NAME":"STARLINK-2757","OBJECT_ID":"2021-041BD","EPOCH":"2025-11-26T03:21:12.372192","MEAN_MOTION":15.06431879,"ECCENTRICITY":0.0001608,"INCLINATION":53.0544,"RA_OF_ASC_NODE":246.4724,"ARG_OF_PERICENTER":83.6881,"MEAN_ANOMALY":276.4291,"EPHEMERIS_TYPE":0,"CLASSIFICATION_TYPE":"U","NORAD_CAT_ID":48604,"ELEMENT_SET_NO":999,"REV_AT_EPOCH":25072,"BSTAR":0.00089118,"MEAN_MOTION_DOT":0.00013029,"MEAN_MOTION_DDOT":0},{"OBJECT_NAME":"STARLINK-2739","OBJECT_ID":"2021-044B","EPOCH":"2025-11-26T01:51:38.433024","MEAN_MOTION":15.0638699,"ECCENTRICITY":0.0001313,"INCLINATION":53.0527,"RA_OF_ASC_NODE":221.762,"ARG_OF_PERICENTER":91.0363,"MEAN_ANOMALY":269.0776,"EPHEMERIS_TYPE":0,"CLASSIFICATION_TYPE":"U","NORAD_CAT_ID":48639,"ELEMENT_SET_NO":999,"REV_AT_EPOCH":24816,"BSTAR":-0.00083456,"MEAN_MOTION_DOT":-0.00012686,"MEAN_MOTION_DDOT":0},{"OBJECT_NAME":"STARLINK-2736","OBJECT_ID":"2021-044C","EPOCH":"2025-11-26T03:16:36.948864","MEAN_MOTION":15.06414904,"ECCENTRICITY":0.0001648,"INCLINATION":53.0533,"RA_OF_ASC_NODE":221.7685,"ARG_OF_PERICENTER":96.9495,"MEAN_ANOMALY":263.1682,"EPHEMERIS_TYPE":0,"CLASSIFICATION_TYPE":"U","NORAD_CAT_ID":48640,"ELEMENT_SET_NO":999,"REV_AT_EPOCH":24816,"BSTAR":0.00039686,"MEAN_MOTION_DOT":5.637e-5,"MEAN_MOTION_DDOT":0},{"OBJECT_NAME":"STARLINK-2754","OBJECT_ID":"2021-044D","EPOCH":"2025-11-26T03:34:28.941312","MEAN_MOTION":15.06423409,"ECCENTRICITY":0.0001595,"INCLINATION":53.0539,"RA_OF_ASC_NODE":226.4315,"ARG_OF_PERICENTER":98.5182,"MEAN_ANOMALY":261.5988,"EPHEMERIS_TYPE":0,"CLASSIFICATION_TYPE":"U","NORAD_CAT_ID":48641,"ELEMENT_SET_NO":999,"REV_AT_EPOCH":24810,"BSTAR":0.00069848,"MEAN_MOTION_DOT":0.00010144,"MEAN_MOTION_DDOT":0},{"OBJECT_NAME":"STARLINK-2646","OBJECT_ID":"2021-044E","EPOCH":"2025-11-26T02:20:10.647744","MEAN_MOTION":15.0641562,"ECCENTRICITY":0.0001619,"INCLINATION":53.0537,"RA_OF_ASC_NODE":226.6755,"ARG_OF_PERICENTER":90.8366,"MEAN_ANOMALY":269.2808,"EPHEMERIS_TYPE":0,"CLASSIFICATION_TYPE":"U","NORAD_CAT_ID":48642,"ELEMENT_SET_NO":999,"REV_AT_EPOCH":24809,"BSTAR":0.00056107,"MEAN_MOTION_DOT":8.089e-5,"MEAN_MOTION_DDOT":0},{"OBJECT_NAME":"STARLINK-2704","OBJECT_ID":"2021-044F","EPOCH":"2025-11-26T01:52:16.220064","MEAN_MOTION":15.06431872,"ECCENTRICITY":0.0001739,"INCLINATION":53.053,"RA_OF_ASC_NODE":226.7421,"ARG_OF_PERICENTER":94.9908,"MEAN_ANOMALY":265.128,"EPHEMERIS_TYPE":0,"CLASSIFICATION_TYPE":"U","NORAD_CAT_ID":48643,"ELEMENT_SET_NO":999,"REV_AT_EPOCH":24809,"BSTAR":0.00080002,"MEAN_MOTION_DOT":0.00011665,"MEAN_MOTION_DDOT":0},{"OBJECT_NAME":"STARLINK-2695","OBJECT_ID":"2021-044G","EPOCH":"2025-11-26T01:48:19.075392","MEAN_MOTION":15.06425702,"ECCENTRICITY":0.0001732,"INCLINATION":53.0546,"RA_OF_ASC_NODE":226.7627,"ARG_OF_PERICENTER":98.2752,"MEAN_ANOMALY":261.8434,"EPHEMERIS_TYPE":0,"CLASSIFICATION_TYPE":"U","NORAD_CAT_ID":48644,"ELEMENT_SET_NO":999,"REV_AT_EPOCH":24809,"BSTAR":0.00053797,"MEAN_MOTION_DOT":7.746e-5,"MEAN_MOTION_DDOT":0},{"OBJECT_NAME":"STARLINK-2732","OBJECT_ID":"2021-044J","EPOCH":"2025-11-26T03:13:14.949984","MEAN_MOTION":15.06422462,"ECCENTRICITY":0.0001958,"INCLINATION":53.0543,"RA_OF_ASC_NODE":226.4927,"ARG_OF_PERICENTER":106.0742,"MEAN_ANOMALY":254.0463,"EPHEMERIS_TYPE":0,"CLASSIFICATION_TYPE":"U","NORAD_CAT_ID":48646,"ELEMENT_SET_NO":999,"REV_AT_EPOCH":24810,"BSTAR":0.00066101,"MEAN_MOTION_DOT":9.584e-5,"MEAN_MOTION_DDOT":0},{"OBJECT_NAME":"STARLINK-2521","OBJECT_ID":"2021-044L","EPOCH":"2025-11-26T01:53:39.581376","MEAN_MOTION":15.06408372,"ECCENTRICITY":0.000144,"INCLINATION":53.053,"RA_OF_ASC_NODE":226.91,"ARG_OF_PERICENTER":86.406,"MEAN_ANOMALY":273.7094,"EPHEMERIS_TYPE":0,"CLASSIFICATION_TYPE":"U","NORAD_CAT_ID":48648,"ELEMENT_SET_NO":999,"REV_AT_EPOCH":24809,"BSTAR":0.0012458,"MEAN_MOTION_DOT":0.00018328,"MEAN_MOTION_DDOT":0},{"OBJECT_NAME":"STARLINK-2673","OBJECT_ID":"2021-044M","EPOCH":"2025-11-26T03:02:37.430304","MEAN_MOTION":15.06439301,"ECCENTRICITY":0.0001547,"INCLINATION":53.053,"RA_OF_ASC_NODE":226.5312,"ARG_OF_PERICENTER":83.9956,"MEAN_ANOMALY":276.1209,"EPHEMERIS_TYPE":0,"CLASSIFICATION_TYPE":"U","NORAD_CAT_ID":48649,"ELEMENT_SET_NO":999,"REV_AT_EPOCH":24809,"BSTAR":0.00085583,"MEAN_MOTION_DOT":0.00012502,"MEAN_MOTION_DDOT":0}]
