STARLINK-2251           
1 48594U 21041AT  25330.04666610  .00008875  00000+0  61346-3 0  9990
2 48594  53.0540 216.9739 0001720  87.6077 272.5109 15.06428715249865
STARLINK-2252           
1 48595U 21041AU  25330.06600691  .00010665  00000+0  73320-3 0  9995
2 48595  53.0536 246.8044 0001610  82.5496 277.5675 15.06428978250719
STARLINK-2253           
1 48596U 21041AV  25330.15447613  .00011738  00000+0  80511-3 0  9991
2 48596  53.0543 246.4062 0001810  99.3468 260.7726 15.06423414249912
STARLINK-2255           
1 48597U 21041AW  25330.16183941  .00015740  00000+0  10721-2 0  9996
2 48597  53.0534 246.3743 0001708  94.6151 265.5033 15.06439919250723
STARLINK-2713           
1 48602U 21041BB  25330.09228885 -.00009235  00000+0 -60231-3 0  9998
2 48602  53.0534 221.6850 0001374  76.7015 283.4127 15.06375522251053
STARLINK-2714           
1 48603U 21041BC  25330.13786377  .00006960  00000+0  48550-3 0  9999
2 48603  53.0533 216.4794 0001696  96.9126 263.2056 15.06415775251148
STARLINK-2757           
1 48604U 21041BD  25330.13972653  .00013029  00000+0  89118-3 0  9993
2 48604  53.0544 246.4724 0001608  83.6881 276.4291 15.06431879250724
STARLINK-2739           
1 48639U 21044B   25330.07752816 -.00012686  00000+0 -83456-3 0  9993
2 48639  53.0527 221.7620 0001313  91.0363 269.0776 15.06386990248169
STARLINK-2736           
1 48640U 21044C   25330.13653876  .00005637  00000+0  39686-3 0  9990
2 48640  53.0533 221.7685 0001648  96.9495 263.1682 15.06414904248168
STARLINK-2754           
1 48641U 21044D   25330.14894608  .00010144  00000+0  69848-3 0  9994
2 48641  53.0539 226.4315 0001595  98.5182 261.5988 15.06423409248104
STARLINK-2646           
1 48642U 21044E   25330.09734546  .00008089  00000+0  56107-3 0  9992
2 48642  53.0537 226.6755 0001619  90.8366 269.2808 15.06415620248099
STARLINK-2704           
1 48643U 21044F   25330.07796551  .00011665  00000+0  80002-3 0  9990
2 48643  53.0530 226.7421 0001739  94.9908 265.1280 15.06431872248090
STARLINK-2695           
1 48644U 21044G   25330.07522078  .00007746  00000+0  53797-3 0  9998
2 48644  53.0546 226.7627 0001732  98.2752 261.8434 15.06425702248092
STARLINK-2732           
1 48646U 21044J   25330.13420081  .00009584  00000+0  66101-3 0  9993
2 48646  53.0543 226.4927 0001958 106.0742 254.0463 15.06422462248106
STARLINK-2521           
1 48648U 21044L   25330.07893034  .00018328  00000+0  12458-2 0  9991
2 48648  53.0530 226.9100 0001440  86.4060 273.7094 15.06408372248092
STARLINK-2673           
1 48649U 21044M   25330.12682211  .00012502  00000+0  85583-3 0  9999
2 48649  53.0530 226.5312 0001547  83.9956 276.1209 15.06439301248099
